STARLINK-2682
1 28440C 21040N   21325.12726635 -.00010342  00000-0 -69306-3 0  3254
2 28440  53.0571  27.6495 0001336  74.7088   4.6797 15.06403178    12
